[{"OBJECT_NAME":"STARLINK-3978","OBJECT_ID":"2022-052AP","EPOCH":"2026-03-09T19:29:35.321568","MEAN_MOTION":15.08844363,"ECCENTRICITY":0.00013055,"INCLINATION":53.2159,"RA_OF_ASC_NODE":258.5733,"ARG_OF_PERICENTER":100.3719,"MEAN_ANOMALY":259.7421,"EPHEMERIS_TYPE":0,"CLASSIFICATION_TYPE":"U","NORAD_CAT_ID":52635,"ELEMENT_SET_NO":999,"REV_AT_EPOCH":21115,"BSTAR":4.05284e-7,"MEAN_MOTION_DOT":-2.81e-6,"MEAN_MOTION_DDOT":0},{"OBJECT_NAME":"FENGYUN 1C DEB","OBJECT_ID":"1999-025EMJ","EPOCH":"2026-03-09T03:39:09.279936","MEAN_MOTION":15.01174269,"ECCENTRICITY":0.00472088,"INCLINATION":98.7318,"RA_OF_ASC_NODE":38.98,"ARG_OF_PERICENTER":180.721,"MEAN_ANOMALY":242.109,"EPHEMERIS_TYPE":0,"CLASSIFICATION_TYPE":"U","NORAD_CAT_ID":37717,"ELEMENT_SET_NO":999,"REV_AT_EPOCH":90691,"BSTAR":0.0034859906,"MEAN_MOTION_DOT":0.00045969,"MEAN_MOTION_DDOT":0}]
